{
  "type": "FeatureCollection",
  "features": [
    {
      "type": "Feature",
      "properties": {
        "norad_id": 54741,
        "name": "GALAXY 35 (G-35)",
        "group": "intelsat",
        "lat": -0.020588160352568576,
        "lon": -37.419692438555096,
        "alt_km": 35780.34519930722,
        "timestamp": "2025-12-06T22:38:42.402951+00:00",
        "meta_object_name": "GALAXY 35 (G-35)",
        "meta_object_id": "2022-170A",
        "meta_epoch": "2025-12-06T10:59:59.043264",
        "meta_mean_motion": 1.00271248,
        "meta_eccentricity": 0.00027301,
        "meta_inclination": 0.0156,
        "meta_ra_of_asc_node": 37.9827,
        "meta_arg_of_pericenter": 225.3821,
        "meta_mean_anomaly": 244.0405,
        "meta_ephemeris_type": 0,
        "meta_classification_type": "U",
        "meta_norad_cat_id": 54741,
        "meta_element_set_no": 999,
        "meta_rev_at_epoch": 1096,
        "meta_bstar": 0,
        "meta_mean_motion_dot": -1.55e-06,
        "meta_mean_motion_ddot": 0,
        "tle_line1": "1 54741U 22170A   25340.45832226 -.00000155  00000+0  00000+0 0  9999",
        "tle_line2": "2 54741   0.0156  37.9827 0002730 225.3821 244.0405  1.00271248 10966"
      },
      "geometry": {
        "type": "Point",
        "coordinates": [
          -37.419692438555096,
          -0.020588160352568576
        ]
      }
    },
    {
      "type": "Feature",
      "properties": {
        "norad_id": 54742,
        "name": "GALAXY 36 (G-36)",
        "group": "intelsat",
        "lat": -0.006218936659398635,
        "lon": -33.365496864017,
        "alt_km": 35785.25524731654,
        "timestamp": "2025-12-06T22:38:42.402962+00:00",
        "meta_object_name": "GALAXY 36 (G-36)",
        "meta_object_id": "2022-170B",
        "meta_epoch": "2025-12-06T11:01:48.117216",
        "meta_mean_motion": 1.00269622,
        "meta_eccentricity": 6.487e-05,
        "meta_inclination": 0.013,
        "meta_ra_of_asc_node": 335.9806,
        "meta_arg_of_pericenter": 292.9746,
        "meta_mean_anomaly": 242.9837,
        "meta_ephemeris_type": 0,
        "meta_classification_type": "U",
        "meta_norad_cat_id": 54742,
        "meta_element_set_no": 999,
        "meta_rev_at_epoch": 1084,
        "meta_bstar": 0,
        "meta_mean_motion_dot": 0,
        "meta_mean_motion_ddot": 0,
        "tle_line1": "1 54742U 22170B   25340.45958469  .00000000  00000+0  00000+0 0  9996",
        "tle_line2": "2 54742   0.0130 335.9806 0000648 292.9746 242.9837  1.00269622 10845"
      },
      "geometry": {
        "type": "Point",
        "coordinates": [
          -33.365496864017,
          -0.006218936659398635
        ]
      }
    },
    {
      "type": "Feature",
      "properties": {
        "norad_id": 57493,
        "name": "GALAXY 37 (G-37)",
        "group": "intelsat",
        "lat": -0.02818376626000936,
        "lon": -71.3418049327892,
        "alt_km": 35777.48391096933,
        "timestamp": "2025-12-06T22:38:42.402974+00:00",
        "meta_object_name": "GALAXY 37 (G-37)",
        "meta_object_id": "2023-112A",
        "meta_epoch": "2025-12-06T13:08:15.504288",
        "meta_mean_motion": 1.00270454,
        "meta_eccentricity": 0.00024098,
        "meta_inclination": 0.0116,
        "meta_ra_of_asc_node": 340.5945,
        "meta_arg_of_pericenter": 279.2947,
        "meta_mean_anomaly": 245.765,
        "meta_ephemeris_type": 0,
        "meta_classification_type": "U",
        "meta_norad_cat_id": 57493,
        "meta_element_set_no": 999,
        "meta_rev_at_epoch": 861,
        "meta_bstar": 0,
        "meta_mean_motion_dot": 5.5e-07,
        "meta_mean_motion_ddot": 0,
        "tle_line1": "1 57493U 23112A   25340.54740167  .00000055  00000+0  00000+0 0  9993",
        "tle_line2": "2 57493   0.0116 340.5945 0002409 279.2947 245.7650  1.00270454  8610"
      },
      "geometry": {
        "type": "Point",
        "coordinates": [
          -71.3418049327892,
          -0.02818376626000936
        ]
      }
    }
  ]
}